BEIDOU-3S IGSO-1S       
1 40549U 15019A   23347.24228641 -.00000175  00000+0  00000+0 0  9998
2 40549  50.9225 306.3970 0036024 196.0659 120.4247  1.00290116 31875
GONETS-M 11             
1 40552U 15020A   23347.86598330  .00000038  00000+0  19988-3 0  9993
2 40552  82.4862 241.8837 0015542 200.9150 159.1295 12.42889937394905
GONETS-M 12             
1 40553U 15020B   23348.16095055  .00000043  00000+0  23929-3 0  9990
2 40553  82.4897 242.5627 0014215 183.6901 176.4076 12.42871244394974
GONETS-M 13             
1 40554U 15020C   23348.13491476  .00000054  00000+0  31697-3 0  9998
2 40554  82.4857 241.4902 0013052 168.2742 191.8644 12.42901175394985
COSMOS 2504             
1 40555U 15020D   23348.13270700  .00000309  00000+0  11246-3 0  9995
2 40555  82.5183 218.6358 0611945 242.1688 111.6177 13.60121544425606
THOR 7                  
1 40613U 15022A   23347.85858427  .00000015  00000+0  00000+0 0  9994
2 40613   0.0110  63.5009 0002367 195.2671 131.9600  1.00271023 31628
TURKMENALEM52E/MONACOSAT
1 40617U 15023A   23348.08391949  .00000126  00000+0  00000+0 0  9999
2 40617   0.0208  17.0779 0002673 252.2735 255.4011  1.00273733 31643
DIRECTV 15              
1 40663U 15026A   23347.83822095 -.00000078  00000+0  00000+0 0  9993
2 40663   0.0143  46.5227 0000516  91.8124 142.8286  1.00267792 31281
SKY MEXICO-1            
1 40664U 15026B   23348.12951940 -.00000212  00000+0  00000+0 0  9999
2 40664   0.0173 288.4305 0002101 339.5130 142.4794  1.00271813 31357
SENTINEL-2A             
1 40697U 15028A   23348.15851185  .00000149  00000+0  73515-4 0  9994
2 40697  98.5701  60.0717 0001080  87.4777 272.6530 14.30814831442747
COSMOS 2506             
1 40699U 15029A   23348.12612801  .00000167  00000+0  50379-4 0  9997
2 40699  98.1816  40.9492 0008586 109.1586 251.0540 14.53636559449762
GAOFEN-8                
1 40701U 15030A   23348.13478946  .00009797  00000+0  41207-3 0  9991
2 40701  97.6315 134.3487 0005712 255.7918 104.2684 15.23597550471310
DMC3-FM1                
1 40715U 15032A   23348.12853231  .00000619  00000+0  82166-4 0  9995
2 40715  97.7743 227.2454 0005903 167.2953 192.8410 14.83159756453996
DMC3-FM2                
1 40716U 15032B   23348.15186719  .00000598  00000+0  79605-4 0  9999
2 40716  97.7794 228.2167 0007637 175.5040 184.6244 14.83172835453997
DMC3-FM3                
1 40717U 15032C   23348.17337957  .00000608  00000+0  80797-4 0  9990
2 40717  97.7840 229.4119 0009175 173.9069 186.2258 14.83164939454004
CARBONITE 1 (CBNT-1)    
1 40718U 15032D   23348.15450223  .00001236  00000+0  18010-3 0  9997
2 40718  97.6699 192.2921 0017109  52.1064 308.1691 14.77416862453781
NAVSTAR 74 (USA 262)    
1 40730U 15033A   23347.83901597 -.00000037  00000+0  00000+0 0  9996
2 40730  54.7614 304.6472 0089492  14.8354 345.4184  2.00576888 61613
METEOSAT-11 (MSG-4)     
1 40732U 15034A   23347.86049877  .00000086  00000+0  00000+0 0  9999
2 40732   0.9500  61.5886 0002288 217.2233 122.4952  1.00274948 30829
STAR ONE C4             
1 40733U 15034B   23347.49632708 -.00000240  00000+0  00000+0 0  9993
2 40733   0.0293  29.0426 0001667 263.4140 258.1463  1.00272738 30839
WGS F7 (USA 263)        
1 40746U 15036A   23348.06091372  .00000041  00000+0  00000+0 0  9997
2 40746   0.0048 356.5659 0000295 174.5708 108.2806  1.00271328 30677
BEIDOU-3S M2S           
1 40748U 15037A   23346.13108782 -.00000060  00000+0  00000+0 0  9992
2 40748  55.6045 333.4180 0012684 258.0143 101.8505  1.86233098 57020
BEIDOU-3S M1S           
1 40749U 15037B   23347.47520519 -.00000058  00000+0  00000+0 0  9994
2 40749  55.6068 333.3589 0006636 310.9231  49.0235  1.86232846 57050
INTELSAT 34 (IS-34)     
1 40874U 15039A   23348.17271716 -.00000263  00000+0  00000+0 0  9993
2 40874   0.0171  11.5291 0000814 338.1677  99.5861  1.00269888 30431
EUTELSAT 8 WEST B       
1 40875U 15039B   23347.85710490 -.00000042  00000+0  00000+0 0  9990
2 40875   0.0647 354.5766 0003544 280.2363 108.0299  1.00271585 30459
YAOGAN-27               
1 40878U 15040A   23348.10917259 -.00000051  00000+0 -23295-4 0  9993
2 40878 100.0863   0.6169 0008548 164.4047 195.7332 13.16004997398673
GSAT-6                  
1 40880U 15041A   23347.87688457 -.00000137  00000+0  00000+0 0  9993
2 40880   0.0061  30.3254 0003856 219.5171 230.6597  1.00270275 30418
INMARSAT 5-F3           
1 40882U 15042A   23345.58598715  .00000080  00000+0  00000+0 0  9995
2 40882   0.0243 358.9868 0000650  22.6681  88.9197  1.00270526 30341
MUOS-4                  
1 40887U 15044A   23347.87372624 -.00000072  00000+0  00000+0 0  9997
2 40887   2.8789  27.2004 0052570 355.7471  88.9300  1.00271570 30373
GSAT0205 (GALILEO 9)    
1 40889U 15045A   23347.40438937  .00000034  00000+0  00000+0 0  9996
2 40889  55.3085 246.9339 0006098  28.4384 331.6785  1.70472727 51382
GSAT0206 (GALILEO 10)   
1 40890U 15045B   23347.03843519  .00000033  00000+0  00000+0 0  9992
2 40890  55.3076 246.9396 0003781  18.7628 341.3330  1.70472978 51401
TJS-1                   
1 40892U 15046A   23347.88956439 -.00000133  00000+0  00000+0 0  9996
2 40892   0.0602  65.8771 0007933 270.1692 221.5040  1.00270872 30370
GAOFEN-9 01             
1 40894U 15047A   23348.15869033  .00001884  00000+0  26088-3 0  9994
2 40894  97.7572  44.6387 0029522 244.7193 115.0959 14.78884945444590
EXPRESS-AM8             
1 40895U 15048A   23347.85588657 -.00000087  00000+0  00000+0 0  9999
2 40895   0.0143 298.9512 0000490 212.9040 224.5582  1.00271018 30150
2015-049A               
1 40899U 15049A   23348.09767408  .00011630  00000+0  38333-3 0  9993
2 40899  97.4761 356.4155 0008343 252.3126 107.7205 15.31586661456081
ZDPS 2A                 
1 40901U 15049C   23347.80141043  .00209457  00000+0  12608-2 0  9998
2 40901  97.4175   9.9997 0004387 140.0596 220.0993 15.77103965457149
ZDPS 2B                 
1 40902U 15049D   23348.03682835  .00439026  75555-4  13867-2 0  9991
2 40902  97.4231  10.0285 0005479 131.1313 229.0434 15.91257581457247
KAITUO 1A               
1 40904U 15049F   23348.17640771  .00016682  00000+0  51285-3 0  9995
2 40904  97.4948 355.5826 0007411 259.6839 100.3568 15.33739538455823
XW-2C                   
1 40906U 15049H   23348.11408418  .00013142  00000+0  42165-3 0  9996
2 40906  97.4894 356.5438 0008119 242.5266 117.5150 15.32423643455896
XW-2D                   
1 40907U 15049J   23348.15724142  .00016741  00000+0  48131-3 0  9993
2 40907  97.4861 357.7697 0006959 229.0326 131.0316 15.35856938456030
LILACSAT-2              
1 40908U 15049K   23348.15459191  .00005559  00000+0  24259-3 0  9993
2 40908  97.5266 351.0722 0011374 285.3932  74.6047 15.22506326455156
XW-2E                   
1 40909U 15049L   23348.11085463  .00060573  00000+0  81957-3 0  9992
2 40909  97.4357   6.8930 0005574 158.4218 201.7273 15.57513726456947
XW-2F                   
1 40910U 15049M   23348.00717346  .00056680  00000+0  79895-3 0  9996
2 40910  97.4457   6.0406 0005965 165.1651 194.9780 15.56421350456654
XW-2B                   
1 40911U 15049N   23348.05558928  .00016547  00000+0  48131-3 0  9998
2 40911  97.4840 357.9732 0007036 231.8887 128.1722 15.35492860455895
KAITUO 1B               
1 40912U 15049P   23347.83708480  .00175049  00000+0  11051-2 0  9997
2 40912  97.3897  12.0684 0006327 116.8866 243.3047 15.76097331457535
COSMOS 2507             
1 40920U 15050A   23348.10851944  .00000026  00000+0  11419-3 0  9994
2 40920  82.4916 289.9532 0008760 180.3774 179.7300 12.42879483373082
COSMOS 2508             
1 40921U 15050B   23347.89373952  .00000018  00000+0  58723-4 0  9999
2 40921  82.4868 288.9389 0012816 220.1146 139.8989 12.42889167373014
COSMOS 2509             
1 40922U 15050C   23347.92001034  .00000020  00000+0  72607-4 0  9993
2 40922  82.4869 289.0031 0014847 235.2850 124.6831 12.42889301373059
PUJIANG 1 (PJ-1)        
1 40925U 15051A   23348.13505834  .00078133  00000+0  51724-3 0  9994
2 40925  97.1161 351.3927 0001886 267.3994  92.7056 15.75309025460859
ASTROSAT                
1 40930U 15052A   23347.21198704  .00001539  00000+0  12030-3 0  9996
2 40930   5.9965 256.5073 0008877 297.7220  62.2007 14.78189631443690
LAPAN-A2                
1 40931U 15052B   23346.71835403  .00001085  00000+0  60033-4 0  9998
2 40931   5.9992 251.8762 0013545 302.8419  57.0405 14.77516986443689
EXACTVIEW 9             
1 40936U 15052G   23345.39590175  .00002045  00000+0  18145-3 0  9993
2 40936   6.0032 259.7160 0010785 282.6233  77.2689 14.79485880443534
BEIDOU-3S IGSO-2S       
1 40938U 15053A   23347.20624247 -.00000122  00000+0  00000+0 0  9998
2 40938  50.6537 269.5894 0045977 193.6784 147.6221  1.00260002 30158
SKY MUSTER 1 (NBN1A)    
1 40940U 15054A   23347.88660562 -.00000255  00000+0  00000+0 0  9993
2 40940   0.0180 331.4915 0001590 285.3859 284.8524  1.00269428 30063
ARSAT 2                 
1 40941U 15054B   23348.12908429 -.00000202  00000+0  00000+0 0  9991
2 40941   0.0161  10.8734 0001585 246.8457 150.3056  1.00270233 30120
MORELOS 3               
1 40946U 15056A   23348.13345340 -.00000020  00000+0  00000+0 0  9994
2 40946   3.1345 346.7085 0000771 340.6415  50.1733  1.00269922 30094
LINGQIAO VIDEO A        
1 40959U 15057B   23348.17016320  .00000591  00000+0  95611-4 0  9995
2 40959  97.6845  14.1314 0017775   7.1748 352.9713 14.74581006440279
LINGQIAO VIDEO B        
1 40960U 15057C   23348.14667511  .00000629  00000+0  10104-3 0  9993
2 40960  97.6864  15.1957 0017915   7.6466 352.5013 14.74696082440308
JILIN-1                 
1 40961U 15057D   23348.17020741  .00000652  00000+0  10307-3 0  9996
2 40961  97.6917  17.8008 0017768   4.6488 355.4884 14.75312321440402
AEROCUBE 5C             
1 40965U 15058B   23347.99019576  .00002305  00000+0  24607-3 0  9999
2 40965  64.7702 212.3054 0174958   7.6237 352.7465 14.80837269229449
